[{"OBJECT_NAME":"YUNHAI-3 01","OBJECT_ID":"2022-151A","EPOCH":"2026-03-09T23:02:06.865152","MEAN_MOTION":14.13435801,"ECCENTRICITY":0.00017147,"INCLINATION":98.8209,"RA_OF_ASC_NODE":77.7687,"ARG_OF_PERICENTER":54.4546,"MEAN_ANOMALY":305.6786,"EPHEMERIS_TYPE":0,"CLASSIFICATION_TYPE":"U","NORAD_CAT_ID":54235,"ELEMENT_SET_NO":999,"REV_AT_EPOCH":17092,"BSTAR":4.7399629e-5,"MEAN_MOTION_DOT":4.5e-7,"MEAN_MOTION_DDOT":0},{"OBJECT_NAME":"CZ-6A DEB","OBJECT_ID":"2024-140HW","EPOCH":"2026-03-09T15:03:42.427296","MEAN_MOTION":14.16875845,"ECCENTRICITY":0.0064364,"INCLINATION":89.0121,"RA_OF_ASC_NODE":287.4221,"ARG_OF_PERICENTER":167.407,"MEAN_ANOMALY":192.8745,"EPHEMERIS_TYPE":0,"CLASSIFICATION_TYPE":"U","NORAD_CAT_ID":60843,"ELEMENT_SET_NO":999,"REV_AT_EPOCH":7989,"BSTAR":0.00060874,"MEAN_MOTION_DOT":1.259e-5,"MEAN_MOTION_DDOT":0}]
